CCSDS_OMM_VERS = 2.0
CREATION_DATE  = 
ORIGINATOR     = 

OBJECT_NAME    = STARLINK-35803
OBJECT_ID      = 2025-268M
CENTER_NAME    = EARTH
REF_FRAME      = TEME
TIME_SYSTEM    = UTC
MEAN_ELEMENT_THEORY = SGP/SGP4

EPOCH          = 2025-12-24T00:00:00.999648
MEAN_MOTION    = 15.56750844
ECCENTRICITY   = .00011225
INCLINATION    = 43.0004
RA_OF_ASC_NODE = 55.1511
ARG_OF_PERICENTER = 260.2840
MEAN_ANOMALY   = 210.1501

EPHEMERIS_TYPE = 0
CLASSIFICATION_TYPE = U
NORAD_CAT_ID   = 66568
ELEMENT_SET_NO = 999
REV_AT_EPOCH   = 610
BSTAR          = -.15711134E-1
MEAN_MOTION_DOT = -.1050456E-1
MEAN_MOTION_DDOT = 0

CCSDS_OMM_VERS = 2.0
CREATION_DATE  = 
ORIGINATOR     = 

OBJECT_NAME    = STARLINK-35835
OBJECT_ID      = 2025-268N
CENTER_NAME    = EARTH
REF_FRAME      = TEME
TIME_SYSTEM    = UTC
MEAN_ELEMENT_THEORY = SGP/SGP4

EPOCH          = 2025-12-24T00:00:00.999648
MEAN_MOTION    = 15.56421400
ECCENTRICITY   = .00015731
INCLINATION    = 43.0004
RA_OF_ASC_NODE = 55.0901
ARG_OF_PERICENTER = 274.0366
MEAN_ANOMALY   = 221.4441

EPHEMERIS_TYPE = 0
CLASSIFICATION_TYPE = U
NORAD_CAT_ID   = 66569
ELEMENT_SET_NO = 999
REV_AT_EPOCH   = 610
BSTAR          = -.42112394E-4
MEAN_MOTION_DOT = -.3423E-4
MEAN_MOTION_DDOT = 0

CCSDS_OMM_VERS = 2.0
CREATION_DATE  = 
ORIGINATOR     = 

OBJECT_NAME    = STARLINK-35834
OBJECT_ID      = 2025-268P
CENTER_NAME    = EARTH
REF_FRAME      = TEME
TIME_SYSTEM    = UTC
MEAN_ELEMENT_THEORY = SGP/SGP4

EPOCH          = 2025-12-24T00:00:00.999648
MEAN_MOTION    = 15.44271577
ECCENTRICITY   = .0001694
INCLINATION    = 43.0006
RA_OF_ASC_NODE = 55.2283
ARG_OF_PERICENTER = 277.6580
MEAN_ANOMALY   = 160.7492

EPHEMERIS_TYPE = 0
CLASSIFICATION_TYPE = U
NORAD_CAT_ID   = 66570
ELEMENT_SET_NO = 999
REV_AT_EPOCH   = 610
BSTAR          = -.48835234E-1
MEAN_MOTION_DOT = -.2045238E-1
MEAN_MOTION_DDOT = 0

CCSDS_OMM_VERS = 2.0
CREATION_DATE  = 
ORIGINATOR     = 

OBJECT_NAME    = STARLINK-35836
OBJECT_ID      = 2025-268Q
CENTER_NAME    = EARTH
REF_FRAME      = TEME
TIME_SYSTEM    = UTC
MEAN_ELEMENT_THEORY = SGP/SGP4

EPOCH          = 2025-12-24T00:00:00.999648
MEAN_MOTION    = 15.45101435
ECCENTRICITY   = .00018111
INCLINATION    = 43.0003
RA_OF_ASC_NODE = 55.2050
ARG_OF_PERICENTER = 278.4619
MEAN_ANOMALY   = 169.7182

EPHEMERIS_TYPE = 0
CLASSIFICATION_TYPE = U
NORAD_CAT_ID   = 66571
ELEMENT_SET_NO = 999
REV_AT_EPOCH   = 610
BSTAR          = -.46995349E-1
MEAN_MOTION_DOT = -.2027526E-1
MEAN_MOTION_DDOT = 0

CCSDS_OMM_VERS = 2.0
CREATION_DATE  = 
ORIGINATOR     = 

OBJECT_NAME    = STARLINK-35870
OBJECT_ID      = 2025-268R
CENTER_NAME    = EARTH
REF_FRAME      = TEME
TIME_SYSTEM    = UTC
MEAN_ELEMENT_THEORY = SGP/SGP4

EPOCH          = 2025-12-24T00:00:00.999648
MEAN_MOTION    = 15.46554242
ECCENTRICITY   = .0001453
INCLINATION    = 43.0003
RA_OF_ASC_NODE = 55.1712
ARG_OF_PERICENTER = 276.0713
MEAN_ANOMALY   = 186.3110

EPHEMERIS_TYPE = 0
CLASSIFICATION_TYPE = U
NORAD_CAT_ID   = 66572
ELEMENT_SET_NO = 999
REV_AT_EPOCH   = 610
BSTAR          = -.4522929E-1
MEAN_MOTION_DOT = -.2049368E-1
MEAN_MOTION_DDOT = 0

CCSDS_OMM_VERS = 2.0
CREATION_DATE  = 
ORIGINATOR     = 

OBJECT_NAME    = STARLINK-35650
OBJECT_ID      = 2025-268S
CENTER_NAME    = EARTH
REF_FRAME      = TEME
TIME_SYSTEM    = UTC
MEAN_ELEMENT_THEORY = SGP/SGP4

EPOCH          = 2025-12-23T11:08:29.992128
MEAN_MOTION    = 15.50365619
ECCENTRICITY   = .0004817
INCLINATION    = 43.0033
RA_OF_ASC_NODE = 58.2732
ARG_OF_PERICENTER = 315.3738
MEAN_ANOMALY   = 44.6734

EPHEMERIS_TYPE = 0
CLASSIFICATION_TYPE = U
NORAD_CAT_ID   = 66573
ELEMENT_SET_NO = 999
REV_AT_EPOCH   = 629
BSTAR          = .13458911E-2
MEAN_MOTION_DOT = .78839E-3
MEAN_MOTION_DDOT = 0

CCSDS_OMM_VERS = 2.0
CREATION_DATE  = 
ORIGINATOR     = 

OBJECT_NAME    = STARLINK-35812
OBJECT_ID      = 2025-268T
CENTER_NAME    = EARTH
REF_FRAME      = TEME
TIME_SYSTEM    = UTC
MEAN_ELEMENT_THEORY = SGP/SGP4

EPOCH          = 2025-12-24T00:00:00.999648
MEAN_MOTION    = 15.48223371
ECCENTRICITY   = .00012621
INCLINATION    = 43.0004
RA_OF_ASC_NODE = 55.1313
ARG_OF_PERICENTER = 280.1928
MEAN_ANOMALY   = 198.1098

EPHEMERIS_TYPE = 0
CLASSIFICATION_TYPE = U
NORAD_CAT_ID   = 66574
ELEMENT_SET_NO = 999
REV_AT_EPOCH   = 610
BSTAR          = -.42495274E-1
MEAN_MOTION_DOT = -.2042465E-1
MEAN_MOTION_DDOT = 0

CCSDS_OMM_VERS = 2.0
CREATION_DATE  = 
ORIGINATOR     = 

OBJECT_NAME    = STARLINK-35810
OBJECT_ID      = 2025-268U
CENTER_NAME    = EARTH
REF_FRAME      = TEME
TIME_SYSTEM    = UTC
MEAN_ELEMENT_THEORY = SGP/SGP4

EPOCH          = 2025-12-24T00:00:00.999648
MEAN_MOTION    = 15.49059705
ECCENTRICITY   = .00013872
INCLINATION    = 43.0004
RA_OF_ASC_NODE = 55.1141
ARG_OF_PERICENTER = 281.4877
MEAN_ANOMALY   = 203.9318

EPHEMERIS_TYPE = 0
CLASSIFICATION_TYPE = U
NORAD_CAT_ID   = 66575
ELEMENT_SET_NO = 999
REV_AT_EPOCH   = 610
BSTAR          = -.411769E-1
MEAN_MOTION_DOT = -.2039128E-1
MEAN_MOTION_DDOT = 0

CCSDS_OMM_VERS = 2.0
CREATION_DATE  = 
ORIGINATOR     = 

OBJECT_NAME    = STARLINK-35814
OBJECT_ID      = 2025-268V
CENTER_NAME    = EARTH
REF_FRAME      = TEME
TIME_SYSTEM    = UTC
MEAN_ELEMENT_THEORY = SGP/SGP4

EPOCH          = 2025-12-23T16:00:01.999584
MEAN_MOTION    = 15.51397553
ECCENTRICITY   = .00014164
INCLINATION    = 43.0001
RA_OF_ASC_NODE = 57.0493
ARG_OF_PERICENTER = 283.9397
MEAN_ANOMALY   = 145.0731

EPHEMERIS_TYPE = 0
CLASSIFICATION_TYPE = U
NORAD_CAT_ID   = 66576
ELEMENT_SET_NO = 999
REV_AT_EPOCH   = 605
BSTAR          = -.3749695E-1
MEAN_MOTION_DOT = -.20214E-1
MEAN_MOTION_DDOT = 0

CCSDS_OMM_VERS = 2.0
CREATION_DATE  = 
ORIGINATOR     = 

OBJECT_NAME    = STARLINK-35815
OBJECT_ID      = 2025-268W
CENTER_NAME    = EARTH
REF_FRAME      = TEME
TIME_SYSTEM    = UTC
MEAN_ELEMENT_THEORY = SGP/SGP4

EPOCH          = 2025-12-24T00:00:00.999648
MEAN_MOTION    = 15.51351014
ECCENTRICITY   = .00011882
INCLINATION    = 43.0004
RA_OF_ASC_NODE = 55.0769
ARG_OF_PERICENTER = 279.3279
MEAN_ANOMALY   = 221.2753

EPHEMERIS_TYPE = 0
CLASSIFICATION_TYPE = U
NORAD_CAT_ID   = 66577
ELEMENT_SET_NO = 999
REV_AT_EPOCH   = 610
BSTAR          = -.38057091E-1
MEAN_MOTION_DOT = -.2045109E-1
MEAN_MOTION_DDOT = 0

CCSDS_OMM_VERS = 2.0
CREATION_DATE  = 
ORIGINATOR     = 

OBJECT_NAME    = STARLINK-35743
OBJECT_ID      = 2025-268X
CENTER_NAME    = EARTH
REF_FRAME      = TEME
TIME_SYSTEM    = UTC
MEAN_ELEMENT_THEORY = SGP/SGP4

EPOCH          = 2025-12-24T00:00:00.999648
MEAN_MOTION    = 15.52195699
ECCENTRICITY   = .00012411
INCLINATION    = 43.0004
RA_OF_ASC_NODE = 55.0643
ARG_OF_PERICENTER = 278.4042
MEAN_ANOMALY   = 227.2191

EPHEMERIS_TYPE = 0
CLASSIFICATION_TYPE = U
NORAD_CAT_ID   = 66578
ELEMENT_SET_NO = 999
REV_AT_EPOCH   = 610
BSTAR          = -.37115251E-1
MEAN_MOTION_DOT = -.2055331E-1
MEAN_MOTION_DDOT = 0

CCSDS_OMM_VERS = 2.0
CREATION_DATE  = 
ORIGINATOR     = 

OBJECT_NAME    = STARLINK-35868
OBJECT_ID      = 2025-268Y
CENTER_NAME    = EARTH
REF_FRAME      = TEME
TIME_SYSTEM    = UTC
MEAN_ELEMENT_THEORY = SGP/SGP4

EPOCH          = 2025-12-24T00:00:00.999648
MEAN_MOTION    = 15.53038004
ECCENTRICITY   = .00010976
INCLINATION    = 43.0006
RA_OF_ASC_NODE = 55.0530
ARG_OF_PERICENTER = 276.3922
MEAN_ANOMALY   = 233.6944

EPHEMERIS_TYPE = 0
CLASSIFICATION_TYPE = U
NORAD_CAT_ID   = 66579
ELEMENT_SET_NO = 999
REV_AT_EPOCH   = 610
BSTAR          = -.36267547E-1
MEAN_MOTION_DOT = -.2069281E-1
MEAN_MOTION_DDOT = 0

CCSDS_OMM_VERS = 2.0
CREATION_DATE  = 
ORIGINATOR     = 

OBJECT_NAME    = STARLINK-35872
OBJECT_ID      = 2025-268Z
CENTER_NAME    = EARTH
REF_FRAME      = TEME
TIME_SYSTEM    = UTC
MEAN_ELEMENT_THEORY = SGP/SGP4

EPOCH          = 2025-12-24T00:00:00.999648
MEAN_MOTION    = 15.53877832
ECCENTRICITY   = .00011994
INCLINATION    = 43.0008
RA_OF_ASC_NODE = 55.0436
ARG_OF_PERICENTER = 267.3198
MEAN_ANOMALY   = 246.6668

EPHEMERIS_TYPE = 0
CLASSIFICATION_TYPE = U
NORAD_CAT_ID   = 66580
ELEMENT_SET_NO = 999
REV_AT_EPOCH   = 610
BSTAR          = -.35225947E-1
MEAN_MOTION_DOT = -.2072501E-1
MEAN_MOTION_DDOT = 0

CCSDS_OMM_VERS = 2.0
CREATION_DATE  = 
ORIGINATOR     = 

OBJECT_NAME    = STARLINK-35744
OBJECT_ID      = 2025-268AA
CENTER_NAME    = EARTH
REF_FRAME      = TEME
TIME_SYSTEM    = UTC
MEAN_ELEMENT_THEORY = SGP/SGP4

EPOCH          = 2025-12-24T00:00:00.999648
MEAN_MOTION    = 15.54721319
ECCENTRICITY   = .00012629
INCLINATION    = 43.0005
RA_OF_ASC_NODE = 55.0339
ARG_OF_PERICENTER = 276.1406
MEAN_ANOMALY   = 241.1845

EPHEMERIS_TYPE = 0
CLASSIFICATION_TYPE = U
NORAD_CAT_ID   = 66581
ELEMENT_SET_NO = 999
REV_AT_EPOCH   = 610
BSTAR          = -.34333138E-1
MEAN_MOTION_DOT = -.2082746E-1
MEAN_MOTION_DDOT = 0

CCSDS_OMM_VERS = 2.0
CREATION_DATE  = 
ORIGINATOR     = 

OBJECT_NAME    = STARLINK-35746
OBJECT_ID      = 2025-268AB
CENTER_NAME    = EARTH
REF_FRAME      = TEME
TIME_SYSTEM    = UTC
MEAN_ELEMENT_THEORY = SGP/SGP4

EPOCH          = 2025-12-24T00:00:00.999648
MEAN_MOTION    = 15.56186130
ECCENTRICITY   = .0000777
INCLINATION    = 43.0005
RA_OF_ASC_NODE = 55.0264
ARG_OF_PERICENTER = 253.0360
MEAN_ANOMALY   = 267.3328

EPHEMERIS_TYPE = 0
CLASSIFICATION_TYPE = U
NORAD_CAT_ID   = 66582
ELEMENT_SET_NO = 999
REV_AT_EPOCH   = 610
BSTAR          = -.32822532E-1
MEAN_MOTION_DOT = -.210041E-1
MEAN_MOTION_DDOT = 0

